OPTICUBE 04             
1 41851U 16067D   19113.86015586  .00000002  00000-0  54784-5 0  9998
2 41851  97.9124 210.8095 0008464 203.6949 156.3883 14.96782637133568
AEROCUBE 8D             
1 41852U 16067E   19114.26042372  .00000162  00000-0  19524-4 0  9996
2 41852  97.9136 211.0398 0009288 202.6660 157.4152 14.96678638133606
AEROCUBE 8C             
1 41853U 16067F   19114.21517315  .00000835  00000-0  78533-4 0  9998
2 41853  97.9141 210.9344 0009485 201.9170 158.1646 14.96646397133590
PROMETHEUS 2-1          
1 41854U 16067G   19114.19021003  .00000161  00000-0  19304-4 0  9993
2 41854  97.9142 211.0198 0009923 204.3610 155.7144 14.96841628133594
PROMETHEUS 2-3          
1 41855U 16067H   19114.19273364  .00000292  00000-0  30731-4 0  9995
2 41855  97.9143 211.0358 0010144 204.7250 155.3486 14.96846046133599
INS-1B                  
1 41954U 17008G   19113.41827191  .00001156  00000-0  50954-4 0  9997
2 41954  97.4045 179.1884 0008800 354.6044   5.5097 15.23798488121234
BGUSAT                  
1 41999U 17008BD  19113.74287832  .00002012  00000-0  81346-4 0  9995
2 41999  97.4109 181.6440 0008097  10.1583 349.9818 15.25871785120767
DIDO-2                  
1 42000U 17008BE  19113.20931438  .00000761  00000-0  34528-4 0  9997
2 42000  97.4057 179.5211 0008751  14.8350 345.3143 15.23788847120603
PEASSS                  
1 42015U 17008BV  19114.12700645  .00001070  00000-0  46121-4 0  9995
2 42015  97.4063 181.2982 0006749  20.8609 339.2903 15.24728620121285
AL-FARABI 1             
1 42016U 17008BW  19114.41066586  .00001588  00000-0  65867-4 0  9999
2 42016  97.4076 182.0569 0006525  19.9330 340.2162 15.25327788121473
NAYIF-1 (EO-88)         
1 42017U 17008BX  19113.41534551  .00001400  00000-0  58343-4 0  9995
2 42017  97.4074 181.0808 0006620  23.4375 336.7163 15.25355187121343
PHOENIX                 
1 42706U 98067LP  19114.47141426  .00402718  86076-4  55696-3 0  9991
2 42706  51.6187 185.6974 0009387 356.5641   3.5305 16.05374410111095
ALTAIR PATHFINDER       
1 42711U 98067LS  19114.46700559  .00038120  00000-0  23267-3 0  9994
2 42711  51.6356 215.4350 0003865 306.4468  53.6175 15.76992668110363
SHARC                   
1 42712U 98067LT  19114.47498064  .00596723  19034-3  69422-3 0  9992
2 42712  51.6225 202.5137 0011706 346.0150  14.0538 16.08045416110775
ZA-AEROSAT              
1 42713U 98067LU  19114.45323221  .00176525  23468-4  42383-3 0  9991
2 42713  51.6270 193.2739 0007612 347.0553  13.0259 15.96080484110655
CSUNSAT1                
1 42715U 98067LW  19114.45697489  .00529283  15220-3  57931-3 0  9997
2 42715  51.6210 187.1523 0010357 352.6566   7.4294 16.09024545110736
NJUST-1                 
1 42722U 98067MB  19114.49278414  .00077122  00000-0  27474-3 0  9998
2 42722  51.6350 200.2537 0006506 347.0538 108.0196 15.88186172109636
NSIGHT                  
1 42726U 98067MF  19113.58037530  .00017939  00000-0  15569-3 0  9995
2 42726  51.6369 235.2744 0005530 320.6008  39.4586 15.69173486109007
BEEAGLESAT              
1 42736U 98067MR  19114.47724329  .01817328  11953-4  70931-3 0  9992
2 42736  51.6159 184.1371 0010250 351.7562   8.3287 16.23012419109662
UCLSAT                  
1 42765U 17036A   19113.41553972  .00001163  00000-0  52922-4 0  9997
2 42765  97.3568 172.6145 0013169  71.2921 288.9744 15.22603322102496
LITUANICASAT-2          
1 42768U 17036D   19113.39458637  .00001976  00000-0  87832-4 0  9999
2 42768  97.3600 172.1696 0016699  62.1213 298.1713 15.22563347101744
AALTO-1                 
1 42775U 17036L   19114.41083070  .00000882  00000-0  42442-4 0  9999
2 42775  97.3552 172.4634 0015460  58.5283 301.7462 15.21244282101806
URSA MAIOR              
1 42776U 17036M   19113.71853187  .00000791  00000-0  38273-4 0  9992
2 42776  97.3562 171.9167 0015331  60.8345 299.4423 15.21367185101702
COMPASS 2               
1 42777U 17036N   19113.68007047  .00001503  00000-0  67300-4 0  9990
2 42777  97.3598 172.9008 0014123  62.8490 297.4185 15.22703391101749
DIAMOND RED             
1 42783U 17036U   19113.44106771  .00000941  00000-0  44041-4 0  9997
2 42783  97.3568 172.2864 0013857  71.7824 288.4919 15.22079534101693
PEGASUS                 
1 42784U 17036V   19114.15371808  .00001099  00000-0  50512-4 0  9997
2 42784  97.3570 173.1765 0013711  69.1009 291.1694 15.22359890101813
DIAMOND GREEN           
1 42785U 17036W   19113.83434567  .00000962  00000-0  44966-4 0  9998
2 42785  97.3570 172.6936 0013749  71.0935 289.1791 15.22080169101746
DIAMOND BLUE            
1 42786U 17036X   19114.16206738  .00000959  00000-0  44828-4 0  9996
2 42786  97.3569 173.0130 0013572  70.3351 289.9349 15.22079871101794
NUDTSAT                 
1 42787U 17036Y   19113.59425678  .00002195  00000-0  95403-4 0  9998
2 42787  97.3611 173.2158 0013704  64.5468 295.7178 15.23260980101605
SUCHAI                  
1 42788U 17036Z   19113.71550725  .00001262  00000-0  56963-4 0  9997
2 42788  97.3574 173.0090 0013305  70.1366 290.1303 15.22748586101830
SKCUBE                  
1 42789U 17036AA  19113.59636269  .00001199  00000-0  54399-4 0  9992
2 42789  97.3571 172.8461 0013166  70.6654 289.6005 15.22658912101731
VZLUSAT-1               
1 42790U 17036AB  19113.12130255  .00001549  00000-0  68206-4 0  9998
2 42790  97.3585 172.7556 0012752  71.6907 288.5716 15.23257462101681
ROBUSTA-1B              
1 42792U 17036AD  19113.73037644  .00001162  00000-0  52579-4 0  9992
2 42792  97.3571 173.1104 0012753  70.9090 289.3527 15.22822010101773
CICERO 6                
1 42793U 17036AE  19114.10498752  .00000846  00000-0  39484-4 0  9994
2 42793  97.3556 173.3080 0011971  71.3192 288.9343 15.22467422101897
D-SAT                   
1 42794U 17036AF  19114.10854043  .00000052  00000-0  10193-4 0  9999
2 42794  97.5461 161.2355 0125691 327.5379  31.8152 14.91064194100058
TOKI                    
1 42820U 98067MU  19114.46946329  .00669305  25395-3  63529-3 0  9999
2 42820  51.6209 190.1986 0010594 351.5113   8.5720 16.11175782103042
MAZAALAI (NUMSAT-1)     
1 42822U 98067MW  19114.50670197  .00349050  65815-4  52355-3 0  9992
2 42822  51.6238 192.7948 0009806 350.6492   9.4335 16.04056891102992
BRAC ONNESHA            
1 42823U 98067MX  19114.47069411  .00485899  12598-3  58485-3 0  9991
2 42823  51.6207 191.7497 0010733 349.1882  10.8899 16.07543360103003
NIGERIAEDUSAT-1         
1 42824U 98067MY  19114.44628388  .00322754  56828-4  52292-3 0  9998
2 42824  51.6245 193.9667 0010175 347.3356  12.7397 16.02778272102960
CORVUS BC2              
1 42846U 17042X   19113.61070303  .00000078  00000-0  12985-4 0  9997
2 42846  97.5717   9.8293 0008248 237.4926 122.5497 14.91950156 96655
CORVUS BC1              
1 42847U 17042Y   19114.30539849  .00000147  00000-0  19788-4 0  9995
2 42847  97.5719  10.5941 0007889 233.8398 126.2092 14.92050174 96755
MIRATA                  
1 43015U 17073C   19114.54315846  .00001462  00000-0  11978-3 0  9995
2 43015  97.7194  37.9041 0255368 337.8475  21.1856 14.78877228 77148
MAKERSAT 0              
1 43016U 17073D   19114.21030148  .00001054  00000-0  87783-4 0  9994
2 43016  97.7226  37.7786 0257401 339.1998  19.8885 14.78660709 77087
ASTERIA                 
1 43020U 98067NH  19113.63861435  .00021311  00000-0  18988-3 0  9995
2 43020  51.6425 245.5789 0002308 290.6120  69.4629 15.68407347 81052
DELLINGR (RBLE)         
1 43021U 98067NJ  19113.88270929  .00008731  00000-0  10310-3 0  9997
2 43021  51.6387 253.8648 0002121 253.9236 106.1525 15.62204778 80969
AEROCUBE 7B (OCSD B)    
1 43042U 17071F   19114.05825673  .00003472  00000-0  93004-4 0  9997
2 43042  51.6385 324.8454 0004108 319.1007  40.9669 15.40841568 77502
AEROCUBE 7C (OCSD C)    
1 43043U 17071G   19114.25270122  .00003662  00000-0  97541-4 0  9994
2 43043  51.6389 323.9073 0004322 322.0830  37.9850 15.40843303 77506
CHEFSAT                 
1 43044U 17071H   19114.52784597  .00007087  00000-0  16609-3 0  9991
2 43044  51.6388 318.3417 0004036 321.0007  39.0688 15.43218068 77603
ASGARDIA 1              
1 43049U 17071N   19113.56073205  .00002523  00000-0  69984-4 0  9991
2 43049  51.6396 326.8100 0002042 347.9853  12.1083 15.40963367 77406
ISARA                   
1 43050U 17071P   19113.87825311  .00004554  00000-0  11179-3 0  9998
2 43050  51.6384 322.2189 0001753 345.4045  14.6890 15.42744685 77489
PROPCUBE 2 (FAUNA)      
1 43052U 17071R   19113.83549983  .00002879  00000-0  77824-4 0  9992
2 43052  51.6392 324.9118 0001884 344.7252  15.3676 15.41218403 77447
CORVUS BC3              
1 43118U 18004H   19113.42317214  .00000746  00000-0  34991-4 0  9996
2 43118  97.4910 180.9543 0012200  89.8520 270.4115 15.22749137 70914
MICROMAS-2A             
1 43131U 18004W   19114.13104599  .00001801  00000-0  77489-4 0  9992
2 43131  97.4931 182.2262 0011213  89.9606 270.2916 15.23908286 71050
CICERO 7                
1 43143U 18004AJ  19114.42256336  .00001634  00000-0  70258-4 0  9995
2 43143  97.4919 182.7286 0009328  96.8002 263.4297 15.24080194 71114
GOMX-4B                 
1 43196U 18015E   19114.35061753  .00000667  00000-0  30451-4 0  9990
2 43196  97.3806 242.7051 0019333 138.2476 222.0241 15.23886781 67914
GOMX-4A                 
1 43197U 18015F   19114.41454442  .00000429  00000-0  20581-4 0  9998
2 43197  97.3830 242.7889 0020307 138.6673 294.1913 15.23974992 67937
1KUNS-PF                
1 43466U 98067NP  19114.36842411  .00024266  00000-0  25468-3 0  9996
2 43466  51.6376 254.8427 0001060 277.8403  82.2472 15.64221555 54250
UBAKUSAT                
1 43467U 98067NQ  19113.63126263  .00011506  00000-0  13729-3 0  9996
2 43467  51.6376 261.1646 0002384 220.3566 139.7252 15.61559389 54113
BATSU-CS1 (IRAZU)       
1 43468U 98067NR  19113.61537076  .00024870  00000-0  24042-3 0  9991
2 43468  51.6369 256.5523 0001321 283.6253  76.4595 15.66280685154150
